KUIPER-00112            
1 65150U 25171U   25331.16670139 -.00456391  00000+0 -42939-1 0  9997
2 65150  51.9006 249.6181 0009219 172.2524  14.2984 14.95568458  3988
KUIPER-00114            
1 65151U 25171V   25331.01310088 -.00003312  00000+0 -40567-3 0  9994
2 65151  51.9000 269.6412 0006655 123.6917 236.4681 14.79889141 17433
KUIPER-00115            
1 65152U 25171W   25330.54841185  .00006595  00000+0  89197-3 0  9995
2 65152  51.9004 264.1748 0010606 145.7000 214.4649 14.79972320 17475
KUIPER-00116            
1 65153U 25171X   25330.98202596  .00005569  00000+0  75816-3 0  9994
2 65153  51.8989 267.3050 0010672 112.7655 247.4436 14.79953345 17466
KUIPER-00118            
1 65154U 25171Y   25330.84419525  .00000126  00000+0  45641-4 0  9990
2 65154  51.8982 270.3642 0001955 117.4201 242.6960 14.79937036 17417
KUIPER-00119            
1 65155U 25171Z   25330.99287269  .00003989  00000+0  55143-3 0  9992
2 65155  51.8996 257.2942 0009148 137.2921 222.8753 14.79967283 17609
KUIPER-00120            
1 65762U 25217A   25331.00005786  .00033150  00000+0  32102-2 0  9994
2 65762  51.8928 147.3657 0016250 312.6035 186.6248 14.92341724  1304
KUIPER-00132            
1 65763U 25217B   25330.70982047  .00037673  00000+0  10297-2 0  9990
2 65763  51.8618 142.2581 0005751 318.1019  41.9527 15.37004415  9571
